NORAD_CAT_ID,OBJECT_NAME,OBJECT_TYPE,EPOCH,MEAN_MOTION,ECCENTRICITY,INCLINATION,RA_OF_ASC_NODE,ARG_OF_PERICENTER,MEAN_ANOMALY,BSTAR,MEAN_MOTION_DOT,MEAN_MOTION_DDOT,TLE_LINE0,TLE_LINE1,TLE_LINE2,SEMIMAJOR_AXIS,PERIOD,APOGEE,PERIGEE,DECAYED
52872.0,STARLINK-4213,PAYLOAD,2022-08-05 14:00:01,15.73243806,0.000289,53.2143,162.0627,13.4202,336.9678,-0.00053423,-0.00075091,0.0,0 STARLINK-4213,1 52872U 22062AU  22217.58335648 -.00075091  00000-0 -53423-3 0  9996,2 52872  53.2143 162.0627 0002890  13.4202 336.9678 15.73243806  1304,6727.77,91.531,351.58,347.691,0.0
52872.0,STARLINK-4213,PAYLOAD,2022-08-05 22:00:00,15.73240859,0.0002862,53.2143,160.41299999999995,12.9428,66.3215,-0.00039258,-0.00055466,0.0,0 STARLINK-4213,1 52872U 22062AU  22217.91667824 -.00055466  00000-0 -39258-3 0  9991,2 52872  53.2143 160.4130 0002862  12.9428  66.3215 15.73240859  8277,6727.779,91.531,351.569,347.718,0.0
52872.0,STARLINK-4213,PAYLOAD,2022-08-06 05:17:17,15.73221978,0.0002686,53.2144,158.9098,13.4948,346.6143,5.2074e-05,6.7e-05,0.0,0 STARLINK-4213,1 52872U 22062AU  22218.22034616  .00006700  00000-0  52074-4 0  9990,2 52872  53.2144 158.9098 0002686  13.4948 346.6143 15.73221978  8321,6727.833000000001,91.532,351.505,347.89,0.0
52872.0,STARLINK-4213,PAYLOAD,2022-08-06 12:54:42,15.73199335,0.0002572,53.2147,157.3383,13.7282,346.3808,-1.5465e-05,-2.792e-05,0.0,0 STARLINK-4213,1 52872U 22062AU  22218.53799180 -.00002792  00000-0 -15465-4 0  9990,2 52872  53.2147 157.3383 0002572  13.7282 346.3808 15.73199335  8373,6727.897,91.533,351.492,348.032,0.0
52872.0,STARLINK-4213,PAYLOAD,2022-08-06 22:00:00,15.73174319,0.0002715,53.2139,155.4643,6.5467,339.4829,0.00011484,0.00015509,0.0,0 STARLINK-4213,1 52872U 22062AU  22218.91667824  .00015509  00000-0  11484-3 0  9995,2 52872  53.2139 155.4643 0002715   6.5467 339.4829 15.73174319  1303,6727.968000000003,91.535,351.66,348.00699999999995,0.0
52872.0,STARLINK-4213,PAYLOAD,2022-08-07 06:00:00,15.73151947,0.0002971,53.2139,153.8166,6.331,68.5938,0.00060796,0.0008541,0.0,0 STARLINK-4213,1 52872U 22062AU  22219.25001157  .00085410  00000-0  60796-3 0  9992,2 52872  53.2139 153.8166 0002971   6.3310  68.5938 15.73151947  8483,6728.031999999997,91.536,351.896,347.898,0.0
52872.0,STARLINK-4213,PAYLOAD,2022-08-07 14:00:01,15.73200713,0.0002813999999999,53.2143,152.1651,7.5755,156.2576,0.00022174,0.00030617,0.0,0 STARLINK-4213,1 52872U 22062AU  22219.58334491  .00030617  00000-0  22174-3 0  9995,2 52872  53.2143 152.1651 0002814   7.5755 156.2576 15.73200713  1304,6727.893,91.533,351.651,347.865,0.0
52872.0,STARLINK-4213,PAYLOAD,2022-08-07 22:00:00,15.73239049,0.0002836999999999,53.2144,150.5158,13.1724,239.5998,-0.00049896,-0.0007019999999999,0.0,0 STARLINK-4213,1 52872U 22062AU  22219.91667824 -.00070200  00000-0 -49896-3 0  9995,2 52872  53.2144 150.5158 0002837  13.1724 239.5998 15.73239049  8598,6727.784000000002,91.531,351.55800000000005,347.74,0.0
52872.0,STARLINK-4213,PAYLOAD,2022-08-08 06:00:00,15.7319943,0.0003066,53.214,148.8677,13.9707,327.7929,0.00071514,0.00100972,0.0,0 STARLINK-4213,1 52872U 22062AU  22220.25001157  .00100972  00000-0  71514-3 0  9995,2 52872  53.2140 148.8677 0003066  13.9707 327.7929 15.73199430  8643,6727.897,91.533,351.825,347.699,0.0
52872.0,STARLINK-4213,PAYLOAD,2022-08-08 14:00:01,15.73275608,0.0002742,53.214,147.2161,13.5519,57.253,-2.2489e-06,-9.4e-06,0.0,0 STARLINK-4213,1 52872U 22062AU  22220.58335648 -.00000940  00000-0 -22489-5 0  9991,2 52872  53.2140 147.2161 0002742  13.5519  57.2530 15.73275608  1302,6727.68,91.529,351.389,347.7,0.0
52872.0,STARLINK-4213,PAYLOAD,2022-08-08 22:00:00,15.73296499,0.0002706999999999,53.2143,145.5669,14.2303,145.533,-0.00071445,-0.0010014,0.0,0 STARLINK-4213,1 52872U 22062AU  22220.91667824 -.00100140  00000-0 -71445-3 0  9999,2 52872  53.2143 145.5669 0002707  14.2303 145.5330 15.73296499  1309,6727.62,91.528,351.306,347.664,0.0
52872.0,STARLINK-4213,PAYLOAD,2022-08-09 14:00:01,15.7313844,0.000273,53.2149,142.2672,13.7818,323.9142,-4.5837e-05,-7.034e-05,0.0,0 STARLINK-4213,1 52872U 22062AU  22221.58334491 -.00007034  00000-0 -45837-4 0  9999,2 52872  53.2149 142.2672 0002730  13.7818 323.9142 15.73138440  1308,6728.071,91.537,351.772,348.099,0.0
52872.0,STARLINK-4213,PAYLOAD,2022-08-09 22:00:00,15.73125628,0.0002747,53.2151,140.6185,13.6297,52.9197,-5.0167e-05,-7.635e-05,0.0,0 STARLINK-4213,1 52872U 22062AU  22221.91667824 -.00007635  00000-0 -50167-4 0  9994,2 52872  53.2151 140.6185 0002747  13.6297  52.9197 15.73125628  8906,6728.107,91.538,351.82,348.124,0.0
52872.0,STARLINK-4213,PAYLOAD,2022-08-10 14:00:01,15.7313426,0.0002685,53.2148,137.3192,13.3193,230.9158,0.00055303,0.00077502,0.0,0 STARLINK-4213,1 52872U 22062AU  22222.58334491  .00077502  00000-0  55303-3 0  9993,2 52872  53.2148 137.3192 0002685  13.3193 230.9158 15.73134260  1300,6728.083000000001,91.537,351.754,348.141,0.0
52872.0,STARLINK-4213,PAYLOAD,2022-08-10 17:07:18,15.731477599999998,0.0002617,53.2149,136.6753,14.9092,246.3755,0.000546,0.00076544,0.0,0 STARLINK-4213,1 52872U 22062AU  22222.71341435  .00076544  00000-0  54600-3 0  9998,2 52872  53.2149 136.6753 0002617  14.9092 246.3755 15.73147760  9037,6728.044,91.536,351.67,348.148,0.0
52872.0,STARLINK-4213,PAYLOAD,2022-08-10 22:00:00,15.73200073,0.0002712,53.2151,135.6708,14.1774,318.9298,3.5881e-05,4.417e-05,0.0,0 STARLINK-4213,1 52872U 22062AU  22222.91667824  .00004417  00000-0  35881-4 0  9994,2 52872  53.2151 135.6708 0002712  14.1774 318.9298 15.73200073  1301,6727.895,91.533,351.585,347.935,0.0
52872.0,STARLINK-4213,PAYLOAD,2022-08-11 06:00:02,15.73210105,0.0002898999999999,53.215,134.0224,10.6642,51.4405,-0.00018569,-0.00026618,0.0,0 STARLINK-4213,1 52872U 22062AU  22223.25002315 -.00026618  00000-0 -18569-3 0  9992,2 52872  53.2150 134.0224 0002899  10.6642  51.4405 15.73210105  9110,6727.866,91.533,351.682,347.781,0.0
52872.0,STARLINK-4213,PAYLOAD,2022-08-11 14:00:01,15.73161977,0.0002633,53.2155,132.3709,9.5992,141.3881,0.00058624,0.00082338,0.0,0 STARLINK-4213,1 52872U 22062AU  22223.58334491  .00082338  00000-0  58624-3 0  9996,2 52872  53.2155 132.3709 0002633   9.5992 141.3881 15.73161977  1307,6728.004,91.535,351.64,348.097,0.0
52872.0,STARLINK-4213,PAYLOAD,2022-08-11 22:00:00,15.73230573,0.0002768,53.2156,130.7225,13.0545,226.8473,8.363700000000001e-05,0.00011148,0.0,0 STARLINK-4213,1 52872U 22062AU  22223.91667824  .00011148  00000-0  83637-4 0  9996,2 52872  53.2156 130.7225 0002768  13.0545 226.8473 15.73230573  9220,6727.808000000001,91.531,351.535,347.811,0.0
52872.0,STARLINK-4213,PAYLOAD,2022-08-12 14:00:01,15.73228561,0.0002708,53.215,127.4221,19.6938,38.1856,0.00030486,0.00042438,0.0,0 STARLINK-4213,1 52872U 22062AU  22224.58334491  .00042438  00000-0  30486-3 0  9990,2 52872  53.2150 127.4221 0002708  19.6938  38.1856 15.73228561  1309,6727.814,91.532,351.501,347.857,0.0
52872.0,STARLINK-4213,PAYLOAD,2022-08-12 22:00:01,15.73240524,0.0002807,53.2151,125.7737,21.624,125.3086,-2.4057e-05,-4.004e-05,0.0,0 STARLINK-4213,1 52872U 22062AU  22224.91668981 -.00004004  00000-0 -24057-4 0  9998,2 52872  53.2151 125.7737 0002807  21.6240 125.3086 15.73240524  1309,6727.78,91.531,351.533,347.756,0.0
52872.0,STARLINK-4213,PAYLOAD,2022-08-13 06:00:02,15.73226473,0.0002863,53.2149,124.1249,17.2134,218.649,-0.00055843,-0.00078376,0.0,0 STARLINK-4213,1 52872U 22062AU  22225.25002315 -.00078376  00000-0 -55843-3 0  9998,2 52872  53.2149 124.1249 0002863  17.2134 218.6490 15.73226473  9436,6727.82,91.532,351.611,347.759,0.0
52872.0,STARLINK-4213,PAYLOAD,2022-08-13 14:00:01,15.73117634,0.0002617,53.2153,122.4733,15.5012,309.2324,0.00047697,0.00066622,0.0,0 STARLINK-4213,1 52872U 22062AU  22225.58334491  .00066622  00000-0  47697-3 0  9994,2 52872  53.2153 122.4733 0002617  15.5012 309.2324 15.73117634  1302,6728.13,91.538,351.756,348.2340000000001,0.0
52872.0,STARLINK-4213,PAYLOAD,2022-08-13 22:00:00,15.73175825,0.0002773999999999,53.2153,120.8253,15.7442,37.8438,7.139e-05,9.399e-05,0.0,0 STARLINK-4213,1 52872U 22062AU  22225.91667824  .00009399  00000-0  71390-4 0  9996,2 52872  53.2153 120.8253 0002774  15.7442  37.8438 15.73175825  1300,6727.964,91.535,351.695,347.963,0.0
52872.0,STARLINK-4213,PAYLOAD,2022-08-14 14:00:01,15.73195734,0.0002577,53.2146,117.5247,15.4492,215.9613,0.0006756,0.00095269,0.0,0 STARLINK-4213,1 52872U 22062AU  22226.58334491  .00095269  00000-0  67560-3 0  9995,2 52872  53.2146 117.5247 0002577  15.4492 215.9613 15.73195734  9641,6727.906999999997,91.533,351.506,348.039,0.0
52872.0,STARLINK-4213,PAYLOAD,2022-08-14 22:00:00,15.73296939,0.0002672,53.2147,115.8767,13.2419,307.1268,-0.00081004,-0.00113282,0.0,0 STARLINK-4213,1 52872U 22062AU  22226.91667824 -.00113282  00000-0 -81004-3 0  9998,2 52872  53.2147 115.8767 0002672  13.2419 307.1268 15.73296939  1305,6727.619000000002,91.528,351.281,347.686,0.0
52872.0,STARLINK-4213,PAYLOAD,2022-08-15 00:00:00,15.73252123,0.0002739,53.2147,115.4648,12.6335,59.984,-0.0004877,-0.00068679,0.0,0 STARLINK-4213,1 52872U 22062AU  22227.00001157 -.00068679  00000-0 -48770-3 0  9992,2 52872  53.2147 115.4648 0002739  12.6335  59.9840 15.73252123  9700,6727.746999999999,91.53,351.454,347.769,0.0
52872.0,STARLINK-4213,PAYLOAD,2022-08-15 14:00:01,15.73156034,0.0002611,53.2149,112.5756,15.6627,122.6386,0.00039487,0.00055062,0.0,0 STARLINK-4213,1 52872U 22062AU  22227.58334491  .00055062  00000-0  39487-3 0  9990,2 52872  53.2149 112.5756 0002611  15.6627 122.6386 15.73156034  1301,6728.021,91.536,351.642,348.129,0.0
52872.0,STARLINK-4213,PAYLOAD,2022-08-15 16:00:00,15.73164877,0.0002613,53.2151,112.1631,17.5132,233.0125,0.00045976,0.00064309,0.0,0 STARLINK-4213,1 52872U 22062AU  22227.66667824  .00064309  00000-0  45976-3 0  9992,2 52872  53.2151 112.1631 0002613  17.5132 233.0125 15.73164877  9812,6727.995,91.535,351.61800000000005,348.102,0.0
